[{"CCSDS_OMM_VERS":"2.0","COMMENT":"GENERATED VIA SPACE-TRACK.ORG API","CREATION_DATE":"2004-08-15T23:35:47","ORIGINATOR":"18 SPCS","OBJECT_NAME":"TITAN 3C TRANSTAGE DEB","OBJECT_ID":"1965-082EU","CENTER_NAME":"EARTH","REF_FRAME":"TEME","TIME_SYSTEM":"UTC","MEAN_ELEMENT_THEORY":"SGP4","EPOCH":"1966-02-17T04:23:09.217248","MEAN_MOTION":"15.44295275","ECCENTRICITY":"0.01452360","INCLINATION":"32.9932","RA_OF_ASC_NODE":"359.5935","ARG_OF_PERICENTER":"277.4705","MEAN_ANOMALY":"80.8816","EPHEMERIS_TYPE":"0","CLASSIFICATION_TYPE":"U","NORAD_CAT_ID":"1879","ELEMENT_SET_NO":"999","REV_AT_EPOCH":"1912","BSTAR":"0.00000000000000","MEAN_MOTION_DOT":"0.00317123","MEAN_MOTION_DDOT":"0.0001443000000","SEMIMAJOR_AXIS":"6811.590","PERIOD":"93.246","APOAPSIS":"532.384","PERIAPSIS":"334.527","OBJECT_TYPE":"DEBRIS","RCS_SIZE":null,"COUNTRY_CODE":null,"LAUNCH_DATE":null,"SITE":null,"DECAY_DATE":"1966-03-22","FILE":"33914","GP_ID":"8717300","TLE_LINE0":"0 TITAN 3C TRANSTAGE DEB","TLE_LINE1":"1 01879U 65082 EU 66048.18274557  .00317123 +14430-3 +00000-0 0  9991","TLE_LINE2":"2 01879 032.9932 359.5935 0145236 277.4705 080.8816 15.44295275019125"},{"CCSDS_OMM_VERS":"2.0","COMMENT":"GENERATED VIA SPACE-TRACK.ORG API","CREATION_DATE":"2004-08-15T23:35:47","ORIGINATOR":"18 SPCS","OBJECT_NAME":"THOR ABLESTAR DEB","OBJECT_ID":"1961-015BJ","CENTER_NAME":"EARTH","REF_FRAME":"TEME","TIME_SYSTEM":"UTC","MEAN_ELEMENT_THEORY":"SGP4","EPOCH":"1966-02-17T20:22:22.820735","MEAN_MOTION":"16.14345436","ECCENTRICITY":"0.00000000","INCLINATION":"66.9680","RA_OF_ASC_NODE":"210.4257","ARG_OF_PERICENTER":"0.0000","MEAN_ANOMALY":"359.9999","EPHEMERIS_TYPE":"0","CLASSIFICATION_TYPE":"U","NORAD_CAT_ID":"220","ELEMENT_SET_NO":"999","REV_AT_EPOCH":"25483","BSTAR":"0.00000000000000","MEAN_MOTION_DOT":"0.02244889","MEAN_MOTION_DDOT":"0.0145070000000","SEMIMAJOR_AXIS":"6613.090","PERIOD":"89.200","APOAPSIS":"234.955","PERIAPSIS":"234.955","OBJECT_TYPE":"DEBRIS","RCS_SIZE":null,"COUNTRY_CODE":null,"LAUNCH_DATE":null,"SITE":null,"DECAY_DATE":"1966-02-21","FILE":"33914","GP_ID":"8705033","TLE_LINE0":"0 THOR ABLESTAR DEB","TLE_LINE1":"1 00220U 61015 BJ 66048.84887524  .02244889 +14507-1 +00000-0 0  9992","TLE_LINE2":"2 00220 066.9680 210.4257 0000000 000.0000 359.9999 16.14345436254834"},{"CCSDS_OMM_VERS":"2.0","COMMENT":"GENERATED VIA SPACE-TRACK.ORG API","CREATION_DATE":"2004-08-15T23:35:47","ORIGINATOR":"18 SPCS","OBJECT_NAME":"OPS 1184","OBJECT_ID":"1966-012A","CENTER_NAME":"EARTH","REF_FRAME":"TEME","TIME_SYSTEM":"UTC","MEAN_ELEMENT_THEORY":"SGP4","EPOCH":"1966-02-17T23:44:06.300383","MEAN_MOTION":"16.27968804","ECCENTRICITY":"0.00765470","INCLINATION":"96.3485","RA_OF_ASC_NODE":"150.5734","ARG_OF_PERICENTER":"135.0399","MEAN_ANOMALY":"225.6370","EPHEMERIS_TYPE":"0","CLASSIFICATION_TYPE":"U","NORAD_CAT_ID":"2012","ELEMENT_SET_NO":"999","REV_AT_EPOCH":"35","BSTAR":"0.00000000000000","MEAN_MOTION_DOT":"0.02317963","MEAN_MOTION_DDOT":"0.0658860000000","SEMIMAJOR_AXIS":"6576.145","PERIOD":"88.453","APOAPSIS":"248.348","PERIAPSIS":"147.671","OBJECT_TYPE":"PAYLOAD","RCS_SIZE":null,"COUNTRY_CODE":null,"LAUNCH_DATE":null,"SITE":null,"DECAY_DATE":"1966-02-22","FILE":"33914","GP_ID":"8718997","TLE_LINE0":"0 OPS 1184","TLE_LINE1":"1 02012U 66012  A 66048.98896181  .02317963 +65886-1 +00000-0 0  9999","TLE_LINE2":"2 02012 096.3485 150.5734 0076547 135.0399 225.6370 16.27968804000350"},{"CCSDS_OMM_VERS":"2.0","COMMENT":"GENERATED VIA SPACE-TRACK.ORG API","CREATION_DATE":"2004-08-15T23:35:47","ORIGINATOR":"18 SPCS","OBJECT_NAME":"TITAN 3C TRANSTAGE DEB","OBJECT_ID":"1965-082JR","CENTER_NAME":"EARTH","REF_FRAME":"TEME","TIME_SYSTEM":"UTC","MEAN_ELEMENT_THEORY":"SGP4","EPOCH":"1966-02-19T01:34:11.932895","MEAN_MOTION":"15.09315267","ECCENTRICITY":"0.02487510","INCLINATION":"31.7183","RA_OF_ASC_NODE":"5.3544","ARG_OF_PERICENTER":"317.7051","MEAN_ANOMALY":"40.4344","EPHEMERIS_TYPE":"0","CLASSIFICATION_TYPE":"U","NORAD_CAT_ID":"2055","ELEMENT_SET_NO":"999","REV_AT_EPOCH":"1908","BSTAR":"0.00000000000000","MEAN_MOTION_DOT":"0.00068347","MEAN_MOTION_DDOT":"0.0000056090000","SEMIMAJOR_AXIS":"6916.432","PERIOD":"95.407","APOAPSIS":"710.344","PERIAPSIS":"366.250","OBJECT_TYPE":"DEBRIS","RCS_SIZE":null,"COUNTRY_CODE":null,"LAUNCH_DATE":null,"SITE":null,"DECAY_DATE":"1966-06-28","FILE":"33914","GP_ID":"8719156","TLE_LINE0":"0 TITAN 3C TRANSTAGE DEB","TLE_LINE1":"1 02055U 65082 JR 66050.06541589  .00068347 +56090-5 +00000-0 0  9991","TLE_LINE2":"2 02055 031.7183 005.3544 0248751 317.7051 040.4344 15.09315267019085"},{"CCSDS_OMM_VERS":"2.0","COMMENT":"GENERATED VIA SPACE-TRACK.ORG API","CREATION_DATE":"2004-08-15T23:35:47","ORIGINATOR":"18 SPCS","OBJECT_NAME":"SL-8 DEB","OBJECT_ID":"1965-020AM","CENTER_NAME":"EARTH","REF_FRAME":"TEME","TIME_SYSTEM":"UTC","MEAN_ELEMENT_THEORY":"SGP4","EPOCH":"1966-02-20T19:48:19.204127","MEAN_MOTION":"15.34798428","ECCENTRICITY":"0.03585990","INCLINATION":"56.0835","RA_OF_ASC_NODE":"166.6116","ARG_OF_PERICENTER":"14.8694","MEAN_ANOMALY":"346.2403","EPHEMERIS_TYPE":"0","CLASSIFICATION_TYPE":"U","NORAD_CAT_ID":"1401","ELEMENT_SET_NO":"999","REV_AT_EPOCH":"4885","BSTAR":"0.00000000000000","MEAN_MOTION_DOT":"0.00761262","MEAN_MOTION_DDOT":"0.0007873300000","SEMIMAJOR_AXIS":"6839.660","PERIOD":"93.823","APOAPSIS":"706.795","PERIAPSIS":"216.256","OBJECT_TYPE":"DEBRIS","RCS_SIZE":null,"COUNTRY_CODE":null,"LAUNCH_DATE":null,"SITE":null,"DECAY_DATE":"1966-03-20","FILE":"33914","GP_ID":"8711027","TLE_LINE0":"0 SL-8 DEB","TLE_LINE1":"1 01401U 65020 AM 66051.82522227  .00761262 +78733-3 +00000-0 0  9992","TLE_LINE2":"2 01401 056.0835 166.6116 0358599 014.8694 346.2403 15.34798428048851"},{"CCSDS_OMM_VERS":"2.0","COMMENT":"GENERATED VIA SPACE-TRACK.ORG API","CREATION_DATE":"2004-08-15T23:35:47","ORIGINATOR":"18 SPCS","OBJECT_NAME":"SL-8 DEB","OBJECT_ID":"1965-020CM","CENTER_NAME":"EARTH","REF_FRAME":"TEME","TIME_SYSTEM":"UTC","MEAN_ELEMENT_THEORY":"SGP4","EPOCH":"1966-02-21T18:29:33.760895","MEAN_MOTION":"15.39165928","ECCENTRICITY":"0.02845010","INCLINATION":"55.9971","RA_OF_ASC_NODE":"162.2636","ARG_OF_PERICENTER":"20.1027","MEAN_ANOMALY":"341.0739","EPHEMERIS_TYPE":"0","CLASSIFICATION_TYPE":"U","NORAD_CAT_ID":"1541","ELEMENT_SET_NO":"999","REV_AT_EPOCH":"4933","BSTAR":"0.00000000000000","MEAN_MOTION_DOT":"0.00747760","MEAN_MOTION_DDOT":"0.0007784700000","SEMIMAJOR_AXIS":"6826.715","PERIOD":"93.557","APOAPSIS":"642.801","PERIAPSIS":"254.360","OBJECT_TYPE":"DEBRIS","RCS_SIZE":null,"COUNTRY_CODE":null,"LAUNCH_DATE":null,"SITE":null,"DECAY_DATE":"1966-03-20","FILE":"33914","GP_ID":"8713108","TLE_LINE0":"0 SL-8 DEB","TLE_LINE1":"1 01541U 65020 CM 66052.77052964  .00747760 +77847-3 +00000-0 0  9990","TLE_LINE2":"2 01541 055.9971 162.2636 0284501 020.1027 341.0739 15.39165928049332"},{"CCSDS_OMM_VERS":"2.0","COMMENT":"GENERATED VIA SPACE-TRACK.ORG API","CREATION_DATE":"2004-08-15T23:35:47","ORIGINATOR":"18 SPCS","OBJECT_NAME":"SL-7 R\/B","OBJECT_ID":"1966-011B","CENTER_NAME":"EARTH","REF_FRAME":"TEME","TIME_SYSTEM":"UTC","MEAN_ELEMENT_THEORY":"SGP4","EPOCH":"1966-02-21T21:51:48.378239","MEAN_MOTION":"15.14551867","ECCENTRICITY":"0.04364790","INCLINATION":"48.8500","RA_OF_ASC_NODE":"308.5525","ARG_OF_PERICENTER":"150.8598","MEAN_ANOMALY":"211.7154","EPHEMERIS_TYPE":"0","CLASSIFICATION_TYPE":"U","NORAD_CAT_ID":"2007","ELEMENT_SET_NO":"999","REV_AT_EPOCH":"154","BSTAR":"0.00000000000000","MEAN_MOTION_DOT":"0.00260584","MEAN_MOTION_DDOT":"0.0000834310000","SEMIMAJOR_AXIS":"6900.480","PERIOD":"95.077","APOAPSIS":"823.537","PERIAPSIS":"221.154","OBJECT_TYPE":"ROCKET BODY","RCS_SIZE":null,"COUNTRY_CODE":null,"LAUNCH_DATE":null,"SITE":null,"DECAY_DATE":"1966-06-01","FILE":"33914","GP_ID":"8718983","TLE_LINE0":"0 SL-7 R\/B","TLE_LINE1":"1 02007U 66011  B 66052.91097660  .00260584 +83431-4 +00000-0 0  9998","TLE_LINE2":"2 02007 048.8500 308.5525 0436479 150.8598 211.7154 15.14551867001547"},{"CCSDS_OMM_VERS":"2.0","COMMENT":"GENERATED VIA SPACE-TRACK.ORG API","CREATION_DATE":"2004-08-15T23:35:47","ORIGINATOR":"18 SPCS","OBJECT_NAME":"OPS 7291","OBJECT_ID":"1966-007A","CENTER_NAME":"EARTH","REF_FRAME":"TEME","TIME_SYSTEM":"UTC","MEAN_ELEMENT_THEORY":"SGP4","EPOCH":"1966-02-22T03:12:05.995007","MEAN_MOTION":"16.09713205","ECCENTRICITY":"0.00962320","INCLINATION":"75.0276","RA_OF_ASC_NODE":"124.0925","ARG_OF_PERICENTER":"94.7572","MEAN_ANOMALY":"266.3483","EPHEMERIS_TYPE":"0","CLASSIFICATION_TYPE":"U","NORAD_CAT_ID":"1968","ELEMENT_SET_NO":"999","REV_AT_EPOCH":"307","BSTAR":"0.00000000000000","MEAN_MOTION_DOT":"0.01737299","MEAN_MOTION_DDOT":"0.0080659000000","SEMIMAJOR_AXIS":"6625.771","PERIOD":"89.456","APOAPSIS":"311.397","PERIAPSIS":"183.875","OBJECT_TYPE":"PAYLOAD","RCS_SIZE":null,"COUNTRY_CODE":null,"LAUNCH_DATE":null,"SITE":null,"DECAY_DATE":"1966-02-27","FILE":"33914","GP_ID":"8718647","TLE_LINE0":"0 OPS 7291","TLE_LINE1":"1 01968U 66007  A 66053.13340272  .01737299 +80659-2 +00000-0 0  9993","TLE_LINE2":"2 01968 075.0276 124.0925 0096232 094.7572 266.3483 16.09713205003078"}]